BUFENG 1A               
1 44310U 19032A   26068.91906837  .00016103  00000+0  62414-3 0  9992
2 44310  44.9758 238.6688 0005472  55.4463 304.6935 15.26012088372013
STARLINK-32547          
1 61919U 24207H   26068.93087705  .00024822  00000+0  90827-3 0  9998
2 61919  43.0018 279.9755 0002713 260.3906  99.6639 15.27587154 74757
